[{"OBJECT_NAME":"STARLINK-3762","OBJECT_ID":"2022-045AV","EPOCH":"2026-03-09T14:52:40.433088","MEAN_MOTION":15.08861515,"ECCENTRICITY":0.0001586,"INCLINATION":53.2182,"RA_OF_ASC_NODE":189.4432,"ARG_OF_PERICENTER":95.1667,"MEAN_ANOMALY":264.9506,"EPHEMERIS_TYPE":0,"CLASSIFICATION_TYPE":"U","NORAD_CAT_ID":52374,"ELEMENT_SET_NO":999,"REV_AT_EPOCH":21591,"BSTAR":0.00026912,"MEAN_MOTION_DOT":4.0e-5,"MEAN_MOTION_DDOT":0},{"OBJECT_NAME":"TIUNGSAT-1 (MO-46)","OBJECT_ID":"2000-057D","EPOCH":"2026-03-09T15:36:52.176096","MEAN_MOTION":15.01128781,"ECCENTRICITY":0.003692,"INCLINATION":64.5465,"RA_OF_ASC_NODE":82.7132,"ARG_OF_PERICENTER":302.2682,"MEAN_ANOMALY":57.4857,"EPHEMERIS_TYPE":0,"CLASSIFICATION_TYPE":"U","NORAD_CAT_ID":26548,"ELEMENT_SET_NO":999,"REV_AT_EPOCH":38128,"BSTAR":0.00030184,"MEAN_MOTION_DOT":3.762e-5,"MEAN_MOTION_DDOT":0}]
